SIRION PATHFINDER-2     
1 43759U 18099B   26166.39790575  .00003874  00000+0  21367-3 0  9994
2 43759  97.4254 215.4978 0007290 312.7494  47.3124 15.14534921412356
CORVUS BC4              
1 43767U 18099K   26166.60052430  .00004243  00000+0  24731-3 0  9997
2 43767  97.4065 209.6270 0008387  18.1335 342.0194 15.12484748412164
M2 PATHFINDER           
1 45727U 20037E   26166.51733912  .00001776  00000+0  13068-3 0  9990
2 45727  97.8148 357.7305 0012395 151.1076 209.0839 15.04671269325243
NETSAT-4                
1 46504U 20068U   26166.56923597  .00015197  00000+0  33729-3 0  9991
2 46504  97.8595 174.6795 0004195 345.4349  14.6776 15.43819081315521
NETSAT-3                
1 46505U 20068V   26165.99046971  .00016798  00000+0  38784-3 0  9994
2 46505  97.8646 172.2736 0004501   9.9261 350.2074 15.42612738315343
NETSAT-1                
1 46506U 20068W   26166.57052646  .00010634  00000+0  31947-3 0  9993
2 46506  97.8738 167.2499 0005223  37.2483 322.9120 15.34611179315053
NETSAT-2                
1 46507U 20068X   26166.54678979  .00019036  00000+0  39258-3 0  9992
2 46507  97.8608 174.5442 0003623  32.1554 327.9914 15.45937832315486
GREENCUBE (IO-117)      
1 53109U 22080E   26164.29338770 -.00000003  00000+0  00000+0 0  9990
2 53109  70.1444 299.5995 0008910 290.4576  69.5127  6.42583230 91811
SITRO-AIS 5 (KATYS)     
1 57176U 23091L   26166.56520115  .00009936  00000+0  35002-3 0  9996
2 57176  97.5064 230.4489 0012795 108.4933 251.7699 15.29425518164092
SITRO-AIS 6 (CHIRKIN)   
1 57192U 23091AC  26166.60598656  .00008697  00000+0  34116-3 0  9992
2 57192  97.5072 229.6177 0013105 111.3111 248.9528 15.25909544164046
SITRO-AIS 8 (ANOKHIN)   
1 57193U 23091AD  26166.58505925  .00012671  00000+0  41033-3 0  9990
2 57193  97.5060 232.0511 0011807 104.8019 255.4531 15.32099687164206
SITRO-AIS 7 (FARTUSHNIY)
1 57194U 23091AE  26166.54322242  .00008471  00000+0  33550-3 0  9994
2 57194  97.5069 229.3804 0012938 112.4837 247.7773 15.25596982164023
SITRO-AIS 10 (BURDAEV)  
1 57199U 23091AK  26166.55830051  .00016880  00000+0  44483-3 0  9992
2 57199  97.5086 237.0612 0007627  85.0129 275.1986 15.38559164164518
SITRO-AIS 9 (SHCHUKIN)  
1 57201U 23091AM  26166.58418154  .00015928  00000+0  42660-3 0  9992
2 57201  97.5084 236.8190 0007852  85.1909 275.0232 15.38070075164506
SITRO-AIS 12 (SMIRENNIY)
1 57204U 23091AQ  26166.57510811  .00016845  00000+0  44680-3 0  9990
2 57204  97.5097 237.2761 0007396  80.0780 280.1299 15.38362492164525
SITRO-AIS 11 (SHEFFER)  
1 57208U 23091AU  26166.58896687  .00016858  00000+0  44101-3 0  9995
2 57208  97.5096 237.5356 0007280  80.1267 280.0799 15.38787720164545
SITRO-AIS 25            
1 59066U 24039R   26166.63419949  .00002219  00000+0  17484-3 0  9990
2 59066  95.3910 234.0253 0143676 334.2351  25.1765 14.93507018124496
SITRO-AIS 26            
1 59067U 24039S   26166.63536043  .00002130  00000+0  16872-3 0  9998
2 59067  95.3911 233.9241 0144018 334.8128  24.6120 14.93303000124485
SITRO-AIS 27            
1 59068U 24039T   26166.60604447  .00002823  00000+0  22083-3 0  9990
2 59068  95.3917 234.1747 0142943 333.5616  25.8364 14.93724296124509
SITRO-AIS 28            
1 59071U 24039U   26166.58352213  .00002629  00000+0  20571-3 0  9996
2 59071  95.3914 234.2065 0142881 333.4344  25.9606 14.93755365124503
GRBBETA                 
1 60237U 24128C   26166.49446256  .00002913  00000+0  20649-3 0  9994
2 60237  61.9889 222.2055 0040850 134.3380 226.1074 15.06630585106017
OOV-CUBE (TUBSAT-30)    
1 60240U 24128F   26166.59161287  .00001776  00000+0  14516-3 0  9999
2 60240  61.9945 231.1374 0044790 133.3400 227.1438 15.02768887105877
ROBUSTA-3A (MEDITERRAN*)
1 60243U 24128J   26166.48116713  .00004988  00000+0  29892-3 0  9995
2 60243  61.9852 214.2780 0041530 127.7723 232.7146 15.11661934106160
LASARSAT                
1 62391U 24247Q   26164.61689910  .00032689  00000+0  65515-3 0  9991
2 62391  44.9751 282.2745 0008375 311.5212  48.4959 15.46168743 82768
CROCUBE                 
1 62394U 24247T   26165.58698051  .00034757  00000+0  65094-3 0  9997
2 62394  44.9722 274.1999 0008187 320.7516  39.2780 15.48102542 82947
FORESAIL-1 PRIME        
1 66778U 25276DS  26166.15169850  .00004477  00000+0  21912-3 0  9991
2 66778  97.4203 239.4592 0003938 109.0976 251.0685 15.18685264 30095
KNACKSAT-2              
1 67683U 98067XZ  26166.55673681  .00040813  00000+0  50084-3 0  9997
2 67683  51.6309 302.6773 0009315 207.8758 152.1737 15.59850380 20023
