OBJECT_NAME,OBJECT_ID,EPOCH,MEAN_MOTION,ECCENTRICITY,INCLINATION,RA_OF_ASC_NODE,ARG_OF_PERICENTER,MEAN_ANOMALY,EPHEMERIS_TYPE,CLASSIFICATION_TYPE,NORAD_CAT_ID,ELEMENT_SET_NO,REV_AT_EPOCH,BSTAR,MEAN_MOTION_DOT,MEAN_MOTION_DDOT
SIRION PATHFINDER-2,2018-099B,2026-06-15T09:32:59.056800,15.14534921,.00072905,97.4254,215.4978,312.7494,47.3124,0,U,43759,999,41235,.21366735E-3,.3874E-4,0
CORVUS BC4,2018-099K,2026-06-15T14:24:45.299520,15.12484748,.00083879,97.4065,209.6270,18.1335,342.0194,0,U,43767,999,41216,.24731002E-3,.4243E-4,0
M2 PATHFINDER,2020-037E,2026-06-15T12:24:58.099968,15.04671269,.00123952,97.8148,357.7305,151.1076,209.0839,0,U,45727,999,32524,.13067843E-3,.1776E-4,0
NETSAT-4,2020-068U,2026-06-15T13:39:41.987808,15.43819081,.00041955,97.8595,174.6795,345.4349,14.6776,0,U,46504,999,31552,.337288E-3,.15197E-3,0
NETSAT-3,2020-068V,2026-06-14T23:46:16.582944,15.42612738,.00045011,97.8646,172.2736,9.9261,350.2074,0,U,46505,999,31534,.3878366E-3,.16798E-3,0
NETSAT-1,2020-068W,2026-06-15T13:41:33.486144,15.34611179,.00052232,97.8738,167.2499,37.2483,322.9120,0,U,46506,999,31505,.31947436E-3,.10634E-3,0
NETSAT-2,2020-068X,2026-06-15T13:07:22.637856,15.45937832,.0003623,97.8608,174.5442,32.1554,327.9914,0,U,46507,999,31548,.39257986E-3,.19036E-3,0
GREENCUBE (IO-117),2022-080E,2026-06-13T07:02:28.697280,6.42583230,.00089108,70.1444,299.5995,290.4576,69.5127,0,U,53109,999,9181,0,-.3E-7,0
SITRO-AIS 5 (KATYS),2023-091L,2026-06-15T13:33:53.379360,15.29425518,.00127959,97.5064,230.4489,108.4933,251.7699,0,U,57176,999,16409,.35001893E-3,.9936E-4,0
SITRO-AIS 6 (CHIRKIN),2023-091AC,2026-06-15T14:32:37.238784,15.25909544,.00131055,97.5072,229.6177,111.3111,248.9528,0,U,57192,999,16404,.34115877E-3,.8697E-4,0
SITRO-AIS 8 (ANOKHIN),2023-091AD,2026-06-15T14:02:29.119200,15.32099687,.00118077,97.5060,232.0511,104.8019,255.4531,0,U,57193,999,16420,.41032672E-3,.12671E-3,0
SITRO-AIS 7 (FARTUSHNIY),2023-091AE,2026-06-15T13:02:14.417088,15.25596982,.00129384,97.5069,229.3804,112.4837,247.7773,0,U,57194,999,16402,.33550488E-3,.8471E-4,0
SITRO-AIS 10 (BURDAEV),2023-091AK,2026-06-15T13:23:57.164064,15.38559164,.0007627,97.5086,237.0612,85.0129,275.1986,0,U,57199,999,16451,.44482863E-3,.1688E-3,0
SITRO-AIS 9 (SHCHUKIN),2023-091AM,2026-06-15T14:01:13.285056,15.38070075,.00078524,97.5084,236.8190,85.1909,275.0232,0,U,57201,999,16450,.42660208E-3,.15928E-3,0
SITRO-AIS 12 (SMIRENNIY),2023-091AQ,2026-06-15T13:48:09.340704,15.38362492,.00073967,97.5097,237.2761,80.0780,280.1299,0,U,57204,999,16452,.44679688E-3,.16845E-3,0
SITRO-AIS 11 (SHEFFER),2023-091AU,2026-06-15T14:08:06.737568,15.38787720,.00072807,97.5096,237.5356,80.1267,280.0799,0,U,57208,999,16454,.44100532E-3,.16858E-3,0
SITRO-AIS 25,2024-039R,2026-06-15T15:13:14.835936,14.93507018,.01436768,95.3910,234.0253,334.2351,25.1765,0,U,59066,999,12449,.17483942E-3,.2219E-4,0
SITRO-AIS 26,2024-039S,2026-06-15T15:14:55.141152,14.93303000,.01440181,95.3911,233.9241,334.8128,24.6120,0,U,59067,999,12448,.16871823E-3,.213E-4,0
SITRO-AIS 27,2024-039T,2026-06-15T14:32:42.242208,14.93724296,.01429432,95.3917,234.1747,333.5616,25.8364,0,U,59068,999,12450,.22082833E-3,.2823E-4,0
SITRO-AIS 28,2024-039U,2026-06-15T14:00:16.312032,14.93755365,.01428816,95.3914,234.2065,333.4344,25.9606,0,U,59071,999,12450,.20571181E-3,.2629E-4,0
GRBBETA,2024-128C,2026-06-15T11:52:01.565184,15.06630585,.00408509,61.9889,222.2055,134.3380,226.1074,0,U,60237,999,10601,.20649176E-3,.2913E-4,0
OOV-CUBE (TUBSAT-30),2024-128F,2026-06-15T14:11:55.351968,15.02768887,.00447908,61.9945,231.1374,133.3400,227.1438,0,U,60240,999,10587,.14515979E-3,.1776E-4,0
ROBUSTA-3A (MEDITERRANEE),2024-128J,2026-06-15T11:32:52.840032,15.11661934,.00415309,61.9852,214.2780,127.7723,232.7146,0,U,60243,999,10616,.29892125E-3,.4988E-4,0
LASARSAT,2024-247Q,2026-06-13T14:48:20.082240,15.46168743,.0008375,44.9751,282.2745,311.5212,48.4959,0,U,62391,999,8276,.65515E-3,.32689E-3,0
CROCUBE,2024-247T,2026-06-14T14:05:15.116064,15.48102542,.0008187,44.9722,274.1999,320.7516,39.2780,0,U,62394,999,8294,.65094E-3,.34757E-3,0
FORESAIL-1 PRIME,2025-276DS,2026-06-15T03:38:26.750400,15.18685264,.00039386,97.4203,239.4592,109.0976,251.0685,0,U,66778,999,3009,.21912264E-3,.4477E-4,0
KNACKSAT-2,1998-067XZ,2026-06-15T13:21:42.060384,15.59850380,.00093159,51.6309,302.6773,207.8758,152.1737,0,U,67683,999,2002,.50083708E-3,.40813E-3,0
